CCSDS_OMM_VERS = 2.0
CREATION_DATE  = 
ORIGINATOR     = 

OBJECT_NAME    = ALOS-2
OBJECT_ID      = 2014-029A
CENTER_NAME    = EARTH
REF_FRAME      = TEME
TIME_SYSTEM    = UTC
MEAN_ELEMENT_THEORY = SGP/SGP4

EPOCH          = 2026-03-20T12:57:14.051808
MEAN_MOTION    = 14.79410984
ECCENTRICITY   = .00017739
INCLINATION    = 97.9196
RA_OF_ASC_NODE = 177.9796
ARG_OF_PERICENTER = 109.0425
MEAN_ANOMALY   = 251.0979

EPHEMERIS_TYPE = 0
CLASSIFICATION_TYPE = U
NORAD_CAT_ID   = 39766
ELEMENT_SET_NO = 999
REV_AT_EPOCH   = 63847
BSTAR          = .10059242E-3
MEAN_MOTION_DOT = .699E-5
MEAN_MOTION_DDOT = 0

CCSDS_OMM_VERS = 2.0
CREATION_DATE  = 
ORIGINATOR     = 

OBJECT_NAME    = YAOGAN-29
OBJECT_ID      = 2015-069A
CENTER_NAME    = EARTH
REF_FRAME      = TEME
TIME_SYSTEM    = UTC
MEAN_ELEMENT_THEORY = SGP/SGP4

EPOCH          = 2026-03-20T14:09:33.818400
MEAN_MOTION    = 14.83007749
ECCENTRICITY   = .00012018
INCLINATION    = 98.0125
RA_OF_ASC_NODE = 108.0478
ARG_OF_PERICENTER = 20.1432
MEAN_ANOMALY   = 339.9828

EPHEMERIS_TYPE = 0
CLASSIFICATION_TYPE = U
NORAD_CAT_ID   = 41038
ELEMENT_SET_NO = 999
REV_AT_EPOCH   = 55749
BSTAR          = .6188195E-4
MEAN_MOTION_DOT = .449E-5
MEAN_MOTION_DDOT = 0

CCSDS_OMM_VERS = 2.0
CREATION_DATE  = 
ORIGINATOR     = 

OBJECT_NAME    = ASTRO-H (HITOMI)
OBJECT_ID      = 2016-012A
CENTER_NAME    = EARTH
REF_FRAME      = TEME
TIME_SYSTEM    = UTC
MEAN_ELEMENT_THEORY = SGP/SGP4

EPOCH          = 2026-03-20T14:33:55.320192
MEAN_MOTION    = 15.10071937
ECCENTRICITY   = .00096031
INCLINATION    = 30.9992
RA_OF_ASC_NODE = 286.0932
ARG_OF_PERICENTER = 80.9930
MEAN_ANOMALY   = 279.1794

EPHEMERIS_TYPE = 0
CLASSIFICATION_TYPE = U
NORAD_CAT_ID   = 41337
ELEMENT_SET_NO = 999
REV_AT_EPOCH   = 55388
BSTAR          = .16909137E-3
MEAN_MOTION_DOT = .2918E-4
MEAN_MOTION_DDOT = 0

CCSDS_OMM_VERS = 2.0
CREATION_DATE  = 
ORIGINATOR     = 

OBJECT_NAME    = HXMT (HUIYAN)
OBJECT_ID      = 2017-034A
CENTER_NAME    = EARTH
REF_FRAME      = TEME
TIME_SYSTEM    = UTC
MEAN_ELEMENT_THEORY = SGP/SGP4

EPOCH          = 2026-03-20T08:59:22.676064
MEAN_MOTION    = 15.17597604
ECCENTRICITY   = .00329348
INCLINATION    = 43.0149
RA_OF_ASC_NODE = 317.2648
ARG_OF_PERICENTER = 300.9726
MEAN_ANOMALY   = 58.7888

EPHEMERIS_TYPE = 0
CLASSIFICATION_TYPE = U
NORAD_CAT_ID   = 42758
ELEMENT_SET_NO = 999
REV_AT_EPOCH   = 48416
BSTAR          = .21457756E-3
MEAN_MOTION_DOT = .421E-4
MEAN_MOTION_DDOT = 0

CCSDS_OMM_VERS = 2.0
CREATION_DATE  = 
ORIGINATOR     = 

OBJECT_NAME    = SAOCOM 1A
OBJECT_ID      = 2018-076A
CENTER_NAME    = EARTH
REF_FRAME      = TEME
TIME_SYSTEM    = UTC
MEAN_ELEMENT_THEORY = SGP/SGP4

EPOCH          = 2026-03-20T15:06:47.556576
MEAN_MOTION    = 14.82152914
ECCENTRICITY   = .0001513
INCLINATION    = 97.8891
RA_OF_ASC_NODE = 267.6479
ARG_OF_PERICENTER = 86.9004
MEAN_ANOMALY   = 273.2382

EPHEMERIS_TYPE = 0
CLASSIFICATION_TYPE = U
NORAD_CAT_ID   = 43641
ELEMENT_SET_NO = 999
REV_AT_EPOCH   = 40298
BSTAR          = .77522123E-4
MEAN_MOTION_DOT = .565E-5
MEAN_MOTION_DDOT = 0

CCSDS_OMM_VERS = 2.0
CREATION_DATE  = 
ORIGINATOR     = 

OBJECT_NAME    = H-2A R/B
OBJECT_ID      = 2018-084L
CENTER_NAME    = EARTH
REF_FRAME      = TEME
TIME_SYSTEM    = UTC
MEAN_ELEMENT_THEORY = SGP/SGP4

EPOCH          = 2026-03-20T04:23:47.959008
MEAN_MOTION    = 15.41759166
ECCENTRICITY   = .00245562
INCLINATION    = 98.8714
RA_OF_ASC_NODE = 298.8177
ARG_OF_PERICENTER = 349.1904
MEAN_ANOMALY   = 10.8807

EPHEMERIS_TYPE = 0
CLASSIFICATION_TYPE = U
NORAD_CAT_ID   = 43682
ELEMENT_SET_NO = 999
REV_AT_EPOCH   = 40739
BSTAR          = .29373396E-3
MEAN_MOTION_DOT = .12444E-3
MEAN_MOTION_DDOT = 0

CCSDS_OMM_VERS = 2.0
CREATION_DATE  = 
ORIGINATOR     = 

OBJECT_NAME    = SAOCOM 1B
OBJECT_ID      = 2020-059A
CENTER_NAME    = EARTH
REF_FRAME      = TEME
TIME_SYSTEM    = UTC
MEAN_ELEMENT_THEORY = SGP/SGP4

EPOCH          = 2026-03-20T14:14:31.602912
MEAN_MOTION    = 14.82145232
ECCENTRICITY   = .00014423
INCLINATION    = 97.8890
RA_OF_ASC_NODE = 266.7099
ARG_OF_PERICENTER = 89.3060
MEAN_ANOMALY   = 270.8319

EPHEMERIS_TYPE = 0
CLASSIFICATION_TYPE = U
NORAD_CAT_ID   = 46265
ELEMENT_SET_NO = 999
REV_AT_EPOCH   = 30036
BSTAR          = .394287E-5
MEAN_MOTION_DOT = -.21E-6
MEAN_MOTION_DDOT = 0

CCSDS_OMM_VERS = 2.0
CREATION_DATE  = 
ORIGINATOR     = 

OBJECT_NAME    = CSS (TIANHE)
OBJECT_ID      = 2021-035A
CENTER_NAME    = EARTH
REF_FRAME      = TEME
TIME_SYSTEM    = UTC
MEAN_ELEMENT_THEORY = SGP/SGP4

EPOCH          = 2026-03-20T14:12:38.548512
MEAN_MOTION    = 15.61218124
ECCENTRICITY   = .00056283
INCLINATION    = 41.4664
RA_OF_ASC_NODE = 141.7960
ARG_OF_PERICENTER = 341.6757
MEAN_ANOMALY   = 18.3879

EPHEMERIS_TYPE = 0
CLASSIFICATION_TYPE = U
NORAD_CAT_ID   = 48274
ELEMENT_SET_NO = 999
REV_AT_EPOCH   = 27931
BSTAR          = .26581831E-3
MEAN_MOTION_DOT = .22909E-3
MEAN_MOTION_DDOT = 0

CCSDS_OMM_VERS = 2.0
CREATION_DATE  = 
ORIGINATOR     = 

OBJECT_NAME    = COSMOS 2550
OBJECT_ID      = 2021-056A
CENTER_NAME    = EARTH
REF_FRAME      = TEME
TIME_SYSTEM    = UTC
MEAN_ELEMENT_THEORY = SGP/SGP4

EPOCH          = 2026-03-20T12:53:52.095264
MEAN_MOTION    = 15.33831834
ECCENTRICITY   = .0008198
INCLINATION    = 67.1449
RA_OF_ASC_NODE = 8.0687
ARG_OF_PERICENTER = 268.9621
MEAN_ANOMALY   = 91.0595

EPHEMERIS_TYPE = 0
CLASSIFICATION_TYPE = U
NORAD_CAT_ID   = 48865
ELEMENT_SET_NO = 999
REV_AT_EPOCH   = 26512
BSTAR          = .42624E-7
MEAN_MOTION_DOT = -.19E-5
MEAN_MOTION_DDOT = 0

CCSDS_OMM_VERS = 2.0
CREATION_DATE  = 
ORIGINATOR     = 

OBJECT_NAME    = CZ-2C R/B
OBJECT_ID      = 2022-058K
CENTER_NAME    = EARTH
REF_FRAME      = TEME
TIME_SYSTEM    = UTC
MEAN_ELEMENT_THEORY = SGP/SGP4

EPOCH          = 2026-03-20T12:05:01.517856
MEAN_MOTION    = 15.54961711
ECCENTRICITY   = .00418691
INCLINATION    = 50.1873
RA_OF_ASC_NODE = 262.6290
ARG_OF_PERICENTER = 246.9596
MEAN_ANOMALY   = 112.6957

EPHEMERIS_TYPE = 0
CLASSIFICATION_TYPE = U
NORAD_CAT_ID   = 52794
ELEMENT_SET_NO = 999
REV_AT_EPOCH   = 21181
BSTAR          = .48558166E-3
MEAN_MOTION_DOT = .34137E-3
MEAN_MOTION_DDOT = 0

CCSDS_OMM_VERS = 2.0
CREATION_DATE  = 
ORIGINATOR     = 

OBJECT_NAME    = CZ-2C R/B
OBJECT_ID      = 2022-132E
CENTER_NAME    = EARTH
REF_FRAME      = TEME
TIME_SYSTEM    = UTC
MEAN_ELEMENT_THEORY = SGP/SGP4

EPOCH          = 2026-03-20T10:51:05.567328
MEAN_MOTION    = 15.62785581
ECCENTRICITY   = .00194256
INCLINATION    = 97.2959
RA_OF_ASC_NODE = 83.1035
ARG_OF_PERICENTER = 57.1661
MEAN_ANOMALY   = 303.1464

EPHEMERIS_TYPE = 0
CLASSIFICATION_TYPE = U
NORAD_CAT_ID   = 54039
ELEMENT_SET_NO = 999
REV_AT_EPOCH   = 19205
BSTAR          = .3351708E-3
MEAN_MOTION_DOT = .30361E-3
MEAN_MOTION_DDOT = 0

CCSDS_OMM_VERS = 2.0
CREATION_DATE  = 
ORIGINATOR     = 

OBJECT_NAME    = GSLV R/B
OBJECT_ID      = 2022-138AN
CENTER_NAME    = EARTH
REF_FRAME      = TEME
TIME_SYSTEM    = UTC
MEAN_ELEMENT_THEORY = SGP/SGP4

EPOCH          = 2026-03-20T11:37:23.150208
MEAN_MOTION    = 14.96840331
ECCENTRICITY   = .00239421
INCLINATION    = 87.3870
RA_OF_ASC_NODE = 162.7491
ARG_OF_PERICENTER = 110.7422
MEAN_ANOMALY   = 249.6378

EPHEMERIS_TYPE = 0
CLASSIFICATION_TYPE = U
NORAD_CAT_ID   = 54149
ELEMENT_SET_NO = 999
REV_AT_EPOCH   = 18554
BSTAR          = .1871789E-3
MEAN_MOTION_DOT = .2185E-4
MEAN_MOTION_DDOT = 0

